[
  {
    "OBJECT_NAME": "STARLINK-33690",
    "OBJECT_ID": "25065H",
    "EPOCH": "2025-11-11T06:16:14.432160",
    "MEAN_MOTION": 15.27566394,
    "ECCENTRICITY": 0.0001186,
    "INCLINATION": 43.0042,
    "RA_OF_ASC_NODE": 51.942,
    "ARG_OF_PERICENTER": 292.5923,
    "MEAN_ANOMALY": 67.4803,
    "EPHEMERIS_TYPE": 0,
    "CLASSIFICATION_TYPE": "U",
    "NORAD_CAT_ID": 63406,
    "ELEMENT_SET_NO": 999,
    "REV_AT_EPOCH": 3477,
    "BSTAR": 0.0015345,
    "MEAN_MOTION_DOT": 0.00042187,
    "MEAN_MOTION_DDOT": 0.0,
    "TLE_LINE1": "1 63406U 25065H   25315.26127815  .00042187  00000+0  15345-2 0  9996",
    "TLE_LINE2": "2 63406  43.0042  51.9420 0001186 292.5923  67.4803 15.27566394 34770",
    "COMMENT": "Grouped by shell and plane from TLE"
  },
  {
    "OBJECT_NAME": "STARLINK-33694",
    "OBJECT_ID": "25065J",
    "EPOCH": "2025-11-11T06:48:52.116192",
    "MEAN_MOTION": 15.27620145,
    "ECCENTRICITY": 4.75e-05,
    "INCLINATION": 43.0028,
    "RA_OF_ASC_NODE": 55.5661,
    "ARG_OF_PERICENTER": 252.226,
    "MEAN_ANOMALY": 107.854,
    "EPHEMERIS_TYPE": 0,
    "CLASSIFICATION_TYPE": "U",
    "NORAD_CAT_ID": 63407,
    "ELEMENT_SET_NO": 999,
    "REV_AT_EPOCH": 3473,
    "BSTAR": 0.0019421,
    "MEAN_MOTION_DOT": 0.00053635,
    "MEAN_MOTION_DDOT": 0.0,
    "TLE_LINE1": "1 63407U 25065J   25315.28393653  .00053635  00000+0  19421-2 0  9993",
    "TLE_LINE2": "2 63407  43.0028  55.5661 0000475 252.2260 107.8540 15.27620145 34737",
    "COMMENT": "Grouped by shell and plane from TLE"
  },
  {
    "OBJECT_NAME": "STARLINK-33693",
    "OBJECT_ID": "25065L",
    "EPOCH": "2025-11-11T07:14:45.660768",
    "MEAN_MOTION": 15.27620548,
    "ECCENTRICITY": 0.0002748,
    "INCLINATION": 42.9969,
    "RA_OF_ASC_NODE": 55.6998,
    "ARG_OF_PERICENTER": 291.6708,
    "MEAN_ANOMALY": 68.3851,
    "EPHEMERIS_TYPE": 0,
    "CLASSIFICATION_TYPE": "U",
    "NORAD_CAT_ID": 63409,
    "ELEMENT_SET_NO": 999,
    "REV_AT_EPOCH": 3473,
    "BSTAR": 0.002121,
    "MEAN_MOTION_DOT": 0.00058645,
    "MEAN_MOTION_DDOT": 0.0,
    "TLE_LINE1": "1 63409U 25065L   25315.30191737  .00058645  00000+0  21210-2 0  9992",
    "TLE_LINE2": "2 63409  42.9969  55.6998 0002748 291.6708  68.3851 15.27620548 34737",
    "COMMENT": "Grouped by shell and plane from TLE"
  },
  {
    "OBJECT_NAME": "STARLINK-33677",
    "OBJECT_ID": "25065M",
    "EPOCH": "2025-11-11T07:03:40.374720",
    "MEAN_MOTION": 15.27608675,
    "ECCENTRICITY": 0.0001165,
    "INCLINATION": 43.0024,
    "RA_OF_ASC_NODE": 55.6427,
    "ARG_OF_PERICENTER": 270.5571,
    "MEAN_ANOMALY": 89.5147,
    "EPHEMERIS_TYPE": 0,
    "CLASSIFICATION_TYPE": "U",
    "NORAD_CAT_ID": 63410,
    "ELEMENT_SET_NO": 999,
    "REV_AT_EPOCH": 3473,
    "BSTAR": 0.0014754999999999998,
    "MEAN_MOTION_DOT": 0.00040601,
    "MEAN_MOTION_DDOT": 0.0,
    "TLE_LINE1": "1 63410U 25065M   25315.29421730  .00040601  00000+0  14755-2 0  9990",
    "TLE_LINE2": "2 63410  43.0024  55.6427 0001165 270.5571  89.5147 15.27608675 34736",
    "COMMENT": "Grouped by shell and plane from TLE"
  },
  {
    "OBJECT_NAME": "STARLINK-33670",
    "OBJECT_ID": "25065Q",
    "EPOCH": "2025-11-11T06:58:06.523392",
    "MEAN_MOTION": 15.27606117,
    "ECCENTRICITY": 0.0001443,
    "INCLINATION": 42.9908,
    "RA_OF_ASC_NODE": 55.5757,
    "ARG_OF_PERICENTER": 112.554,
    "MEAN_ANOMALY": 247.5464,
    "EPHEMERIS_TYPE": 0,
    "CLASSIFICATION_TYPE": "U",
    "NORAD_CAT_ID": 63413,
    "ELEMENT_SET_NO": 999,
    "REV_AT_EPOCH": 3473,
    "BSTAR": 0.0020997,
    "MEAN_MOTION_DOT": 0.00058019,
    "MEAN_MOTION_DDOT": 0.0,
    "TLE_LINE1": "1 63413U 25065Q   25315.29035328  .00058019  00000+0  20997-2 0  9994",
    "TLE_LINE2": "2 63413  42.9908  55.5757 0001443 112.5540 247.5464 15.27606117 34730",
    "COMMENT": "Grouped by shell and plane from TLE"
  },
  {
    "OBJECT_NAME": "STARLINK-33644",
    "OBJECT_ID": "25065R",
    "EPOCH": "2025-11-11T06:30:33.187680",
    "MEAN_MOTION": 15.27598768,
    "ECCENTRICITY": 2.32e-05,
    "INCLINATION": 43.0032,
    "RA_OF_ASC_NODE": 56.2828,
    "ARG_OF_PERICENTER": 257.6179,
    "MEAN_ANOMALY": 102.4647,
    "EPHEMERIS_TYPE": 0,
    "CLASSIFICATION_TYPE": "U",
    "NORAD_CAT_ID": 63414,
    "ELEMENT_SET_NO": 999,
    "REV_AT_EPOCH": 3472,
    "BSTAR": 0.0011446000000000002,
    "MEAN_MOTION_DOT": 0.00031386,
    "MEAN_MOTION_DDOT": 0.0,
    "TLE_LINE1": "1 63414U 25065R   25315.27121745  .00031386  00000+0  11446-2 0  9999",
    "TLE_LINE2": "2 63414  43.0032  56.2828 0000232 257.6179 102.4647 15.27598768 34725",
    "COMMENT": "Grouped by shell and plane from TLE"
  },
  {
    "OBJECT_NAME": "STARLINK-33664",
    "OBJECT_ID": "25065S",
    "EPOCH": "2025-11-11T07:09:13.692960",
    "MEAN_MOTION": 15.27604978,
    "ECCENTRICITY": 0.0001671,
    "INCLINATION": 43.002,
    "RA_OF_ASC_NODE": 55.6335,
    "ARG_OF_PERICENTER": 271.6566,
    "MEAN_ANOMALY": 88.4094,
    "EPHEMERIS_TYPE": 0,
    "CLASSIFICATION_TYPE": "U",
    "NORAD_CAT_ID": 63415,
    "ELEMENT_SET_NO": 999,
    "REV_AT_EPOCH": 3473,
    "BSTAR": 0.0015174000000000001,
    "MEAN_MOTION_DOT": 0.00041763,
    "MEAN_MOTION_DDOT": 0.0,
    "TLE_LINE1": "1 63415U 25065S   25315.29807515  .00041763  00000+0  15174-2 0  9990",
    "TLE_LINE2": "2 63415  43.0020  55.6335 0001671 271.6566  88.4094 15.27604978 34734",
    "COMMENT": "Grouped by shell and plane from TLE"
  },
  {
    "OBJECT_NAME": "STARLINK-33649",
    "OBJECT_ID": "25065T",
    "EPOCH": "2025-11-11T06:50:41.864064",
    "MEAN_MOTION": 15.27629016,
    "ECCENTRICITY": 3.67e-05,
    "INCLINATION": 42.9991,
    "RA_OF_ASC_NODE": 55.5191,
    "ARG_OF_PERICENTER": 243.4498,
    "MEAN_ANOMALY": 116.6316,
    "EPHEMERIS_TYPE": 0,
    "CLASSIFICATION_TYPE": "U",
    "NORAD_CAT_ID": 63416,
    "ELEMENT_SET_NO": 999,
    "REV_AT_EPOCH": 3473,
    "BSTAR": 0.0018357000000000002,
    "MEAN_MOTION_DOT": 0.00050675,
    "MEAN_MOTION_DDOT": 0.0,
    "TLE_LINE1": "1 63416U 25065T   25315.28520676  .00050675  00000+0  18357-2 0  9998",
    "TLE_LINE2": "2 63416  42.9991  55.5191 0000367 243.4498 116.6316 15.27629016 34732",
    "COMMENT": "Grouped by shell and plane from TLE"
  },
  {
    "OBJECT_NAME": "STARLINK-33535",
    "OBJECT_ID": "25065U",
    "EPOCH": "2025-11-11T07:07:20.624736",
    "MEAN_MOTION": 15.27601303,
    "ECCENTRICITY": 0.0001032,
    "INCLINATION": 43.0009,
    "RA_OF_ASC_NODE": 55.5951,
    "ARG_OF_PERICENTER": 199.8294,
    "MEAN_ANOMALY": 160.2518,
    "EPHEMERIS_TYPE": 0,
    "CLASSIFICATION_TYPE": "U",
    "NORAD_CAT_ID": 63417,
    "ELEMENT_SET_NO": 999,
    "REV_AT_EPOCH": 3473,
    "BSTAR": 0.0010479,
    "MEAN_MOTION_DOT": 0.00028704,
    "MEAN_MOTION_DDOT": 0.0,
    "TLE_LINE1": "1 63417U 25065U   25315.29676649  .00028704  00000+0  10479-2 0  9997",
    "TLE_LINE2": "2 63417  43.0009  55.5951 0001032 199.8294 160.2518 15.27601303 34735",
    "COMMENT": "Grouped by shell and plane from TLE"
  },
  {
    "OBJECT_NAME": "STARLINK-33703",
    "OBJECT_ID": "25065V",
    "EPOCH": "2025-11-11T07:36:56.960352",
    "MEAN_MOTION": 15.27591172,
    "ECCENTRICITY": 0.000107,
    "INCLINATION": 42.998,
    "RA_OF_ASC_NODE": 55.7701,
    "ARG_OF_PERICENTER": 272.6714,
    "MEAN_ANOMALY": 87.4015,
    "EPHEMERIS_TYPE": 0,
    "CLASSIFICATION_TYPE": "U",
    "NORAD_CAT_ID": 63418,
    "ELEMENT_SET_NO": 999,
    "REV_AT_EPOCH": 3473,
    "BSTAR": 0.0013909,
    "MEAN_MOTION_DOT": 0.00038223,
    "MEAN_MOTION_DDOT": 0.0,
    "TLE_LINE1": "1 63418U 25065V   25315.31732593  .00038223  00000+0  13909-2 0  9990",
    "TLE_LINE2": "2 63418  42.9980  55.7701 0001070 272.6714  87.4015 15.27591172 34730",
    "COMMENT": "Grouped by shell and plane from TLE"
  },
  {
    "OBJECT_NAME": "STARLINK-33709",
    "OBJECT_ID": "25065W",
    "EPOCH": "2025-11-11T07:42:30.173184",
    "MEAN_MOTION": 15.27597635,
    "ECCENTRICITY": 5.91e-05,
    "INCLINATION": 42.9994,
    "RA_OF_ASC_NODE": 55.8018,
    "ARG_OF_PERICENTER": 294.1328,
    "MEAN_ANOMALY": 65.9462,
    "EPHEMERIS_TYPE": 0,
    "CLASSIFICATION_TYPE": "U",
    "NORAD_CAT_ID": 63419,
    "ELEMENT_SET_NO": 999,
    "REV_AT_EPOCH": 3473,
    "BSTAR": 0.0016496,
    "MEAN_MOTION_DOT": 0.00045436,
    "MEAN_MOTION_DDOT": 0.0,
    "TLE_LINE1": "1 63419U 25065W   25315.32118256  .00045436  00000+0  16496-2 0  9994",
    "TLE_LINE2": "2 63419  42.9994  55.8018 0000591 294.1328  65.9462 15.27597635 34732",
    "COMMENT": "Grouped by shell and plane from TLE"
  },
  {
    "OBJECT_NAME": "STARLINK-33698",
    "OBJECT_ID": "25065X",
    "EPOCH": "2025-11-11T06:39:35.777952",
    "MEAN_MOTION": 15.27607641,
    "ECCENTRICITY": 7.55e-05,
    "INCLINATION": 43.0022,
    "RA_OF_ASC_NODE": 55.4527,
    "ARG_OF_PERICENTER": 37.4632,
    "MEAN_ANOMALY": 322.6272,
    "EPHEMERIS_TYPE": 0,
    "CLASSIFICATION_TYPE": "U",
    "NORAD_CAT_ID": 63420,
    "ELEMENT_SET_NO": 999,
    "REV_AT_EPOCH": 3473,
    "BSTAR": 0.0019176000000000002,
    "MEAN_MOTION_DOT": 0.0005293,
    "MEAN_MOTION_DDOT": 0.0,
    "TLE_LINE1": "1 63420U 25065X   25315.27749743  .00052930  00000+0  19176-2 0  9996",
    "TLE_LINE2": "2 63420  43.0022  55.4527 0000755  37.4632 322.6272 15.27607641 34738",
    "COMMENT": "Grouped by shell and plane from TLE"
  },
  {
    "OBJECT_NAME": "STARLINK-33606",
    "OBJECT_ID": "25065Y",
    "EPOCH": "2025-11-11T07:05:29.841792",
    "MEAN_MOTION": 15.27617814,
    "ECCENTRICITY": 0.0001809,
    "INCLINATION": 42.9983,
    "RA_OF_ASC_NODE": 55.5957,
    "ARG_OF_PERICENTER": 288.5501,
    "MEAN_ANOMALY": 71.5154,
    "EPHEMERIS_TYPE": 0,
    "CLASSIFICATION_TYPE": "U",
    "NORAD_CAT_ID": 63421,
    "ELEMENT_SET_NO": 999,
    "REV_AT_EPOCH": 3473,
    "BSTAR": 0.0020015,
    "MEAN_MOTION_DOT": 0.00055293,
    "MEAN_MOTION_DDOT": 0.0,
    "TLE_LINE1": "1 63421U 25065Y   25315.29548428  .00055293  00000+0  20015-2 0  9995",
    "TLE_LINE2": "2 63421  42.9983  55.5957 0001809 288.5501  71.5154 15.27617814 34738",
    "COMMENT": "Grouped by shell and plane from TLE"
  }
]